NORAD_CAT_ID,OBJECT_NAME,OBJECT_TYPE,EPOCH,MEAN_MOTION,ECCENTRICITY,INCLINATION,RA_OF_ASC_NODE,ARG_OF_PERICENTER,MEAN_ANOMALY,BSTAR,MEAN_MOTION_DOT,MEAN_MOTION_DDOT,TLE_LINE0,TLE_LINE1,TLE_LINE2,SEMIMAJOR_AXIS,PERIOD,APOGEE,PERIGEE,DECAYED
53269.0,STARLINK-4057,PAYLOAD,2023-10-18 08:02:41,15.08844685,0.0001516,53.2164,144.7632,90.868,269.2486,8.5472e-05,1.073e-05,0.0,0 STARLINK-4057,1 53269U 22086AD  23291.33520398  .00001073  00000-0  85472-4 0  9994,2 53269  53.2164 144.7632 0001516  90.8680 269.2486 15.08844685 69358,6917.866,95.437,540.78,538.682,0.0
53269.0,STARLINK-4057,PAYLOAD,2023-10-19 20:36:33,15.08848381,0.0001673,53.2106,137.9222,87.568,272.5504,0.00010143,1.327e-05,0.0,0 STARLINK-4057,1 53269U 22086AD  23292.85871936  .00001327  00000-0  10143-3 0  9993,2 53269  53.2106 137.9222 0001673  87.5680 272.5504 15.08848381 69401,6917.855,95.437,540.877,538.562,0.0
53269.0,STARLINK-4057,PAYLOAD,2023-10-19 22:11:56,15.08851661,0.0001494,53.2133,137.6267,89.1543,270.962,2.2853e-06,-2.52e-06,0.0,0 STARLINK-4057,1 53269U 22086AD  23292.92495569 -.00000252  00000-0  22853-5 0  9995,2 53269  53.2133 137.6267 0001494  89.1543 270.9620 15.08851661 69590,6917.845,95.437,540.743,538.676,0.0
53269.0,STARLINK-4057,PAYLOAD,2023-10-20 12:30:25,15.08833013,0.0001565,53.2126,134.9477,92.7992,267.318,-2.4966e-05,-6.85e-06,0.0,0 STARLINK-4057,1 53269U 22086AD  23293.52112452 -.00000685  00000-0 -24966-4 0  9996,2 53269  53.2126 134.9477 0001565  92.7992 267.3180 15.08833013 69505,6917.902,95.438,540.849,538.684,0.0
53269.0,STARLINK-4057,PAYLOAD,2023-10-20 14:05:48,15.08837955,0.0002248,53.2126,134.6503,90.6784,269.4466,-0.00017297,-3.04e-05,0.0,0 STARLINK-4057,1 53269U 22086AD  23293.58736366 -.00003040  00000-0 -17297-3 0  9994,2 53269  53.2126 134.6503 0002248  90.6784 269.4466 15.08837955 69696,6917.887,95.438,541.307,538.196,0.0
53269.0,STARLINK-4057,PAYLOAD,2023-10-20 20:27:21,15.08829451,0.0001343,53.2151,133.4631,92.5345,267.5801,-5.9612e-05,-1.236e-05,0.0,0 STARLINK-4057,1 53269U 22086AD  23293.85232929 -.00001236  00000-0 -59612-4 0  9993,2 53269  53.2151 133.4631 0001343  92.5345 267.5801 15.08829451 69731,6917.913,95.438,540.707,538.849,0.0
53269.0,STARLINK-4057,PAYLOAD,2023-10-21 13:56:35,15.08843785,0.0001127,53.2158,130.1912,89.662,270.4501,-6.2913e-05,-1.289e-05,0.0,0 STARLINK-4057,1 53269U 22086AD  23294.58096495 -.00001289  00000-0 -62913-4 0  9996,2 53269  53.2158 130.1912 0001127  89.6620 270.4501 15.08843785 69845,6917.869,95.437,540.513,538.954,0.0
53269.0,STARLINK-4057,PAYLOAD,2023-10-21 18:42:44,15.08846908,0.0001317,53.2154,129.2992,96.6588,263.4554,0.00015499,2.18e-05,0.0,0 STARLINK-4057,1 53269U 22086AD  23294.77968300  .00002180  00000-0  15499-3 0  9995,2 53269  53.2154 129.2992 0001317  96.6588 263.4554 15.08846908 69693,6917.859,95.437,540.635,538.813,0.0
53269.0,STARLINK-4057,PAYLOAD,2023-10-21 21:53:30,15.08850386,0.0001344,53.2155,128.7046,93.7919,266.3227,0.00034651,5.233e-05,0.0,0 STARLINK-4057,1 53269U 22086AD  23294.91216302  .00005233  00000-0  34651-3 0  9992,2 53269  53.2155 128.7046 0001344  93.7919 266.3227 15.08850386 69890,6917.849,95.437,540.643,538.784,0.0
53269.0,STARLINK-4057,PAYLOAD,2023-10-22 05:50:26,15.08842988,0.0001505,53.2152,127.2162,83.7181,276.3983,0.00023069,3.386e-05,0.0,0 STARLINK-4057,1 53269U 22086AD  23295.24336654  .00003386  00000-0  23069-3 0  9990,2 53269  53.2152 127.2162 0001505  83.7181 276.3983 15.08842988 69764,6917.871,95.437,540.777,538.695,0.0
53269.0,STARLINK-4057,PAYLOAD,2023-10-22 20:08:55,15.08829814,0.0001771,53.2156,124.5428,83.0596,277.0598,-2.8983e-05,-7.49e-06,0.0,0 STARLINK-4057,1 53269U 22086AD  23295.83953529 -.00000749  00000-0 -28983-4 0  9994,2 53269  53.2156 124.5428 0001771  83.0596 277.0598 15.08829814 69854,6917.912,95.438,541.002,538.551,0.0
53269.0,STARLINK-4057,PAYLOAD,2023-10-23 19:59:42,15.08846266,0.0001368,53.2165,120.0809,88.4029,271.712,2.4583e-05,1.03e-06,0.0,0 STARLINK-4057,1 53269U 22086AD  23296.83313086  .00000103  00000-0  24583-4 0  9997,2 53269  53.2165 120.0809 0001368  88.4029 271.7120 15.08846266 70001,6917.861,95.437,540.673,538.78,0.0
53269.0,STARLINK-4057,PAYLOAD,2023-10-23 21:35:05,15.08848081,0.0001366,53.2165,119.7835,88.1573,271.9575,3.6693e-05,2.96e-06,0.0,0 STARLINK-4057,1 53269U 22086AD  23296.89936901  .00000296  00000-0  36693-4 0  9998,2 53269  53.2165 119.7835 0001366  88.1573 271.9575 15.08848081 70197,6917.856,95.437,540.666,538.776,0.0
53269.0,STARLINK-4057,PAYLOAD,2023-10-24 13:28:56,15.08839791,0.0001341,53.2165,116.8098,88.5048,271.6097,0.00020144,2.919e-05,0.0,0 STARLINK-4057,1 53269U 22086AD  23297.56176973  .00002919  00000-0  20144-3 0  9995,2 53269  53.2165 116.8098 0001341  88.5048 271.6097 15.08839791 70295,6917.881,95.438,540.674,538.818,0.0
53269.0,STARLINK-4057,PAYLOAD,2023-10-25 13:19:44,15.08840868,0.0001345,53.2167,112.3492,88.8953,271.2193,9.6153e-05,1.243e-05,0.0,0 STARLINK-4057,1 53269U 22086AD  23298.55537274  .00001243  00000-0  96153-4 0  9993,2 53269  53.2167 112.3492 0001345  88.8953 271.2193 15.08840868 70265,6917.878,95.437,540.673,538.812,0.0
53269.0,STARLINK-4057,PAYLOAD,2023-10-26 13:10:31,15.08843825,0.0001291,53.2169,107.8891,82.0395,278.0744,5.7027e-05,6.2e-06,0.0,0 STARLINK-4057,1 53269U 22086AD  23299.54897009  .00000620  00000-0  57027-4 0  9993,2 53269  53.2169 107.8891 0001291  82.0395 278.0744 15.08843825 70594,6917.869,95.437,540.627,538.841,0.0
53269.0,STARLINK-4057,PAYLOAD,2023-10-26 21:07:26,15.08851667,0.0001308,53.217,106.4022,82.3548,277.7593,6.7465e-05,7.86e-06,0.0,0 STARLINK-4057,1 53269U 22086AD  23299.88016337  .00000786  00000-0  67465-4 0  9997,2 53269  53.2170 106.4022 0001308  82.3548 277.7593 15.08851667 70646,6917.845,95.437,540.615,538.805,0.0
53269.0,STARLINK-4057,PAYLOAD,2023-10-26 22:42:49,15.08853724,0.0001306,53.217,106.1049,81.9572,278.1568,8.5133e-05,1.068e-05,0.0,0 STARLINK-4057,1 53269U 22086AD  23299.94640121  .00001068  00000-0  85133-4 0  9994,2 53269  53.2170 106.1049 0001306  81.9572 278.1568 15.08853724 70476,6917.838,95.437,540.607,538.8,0.0
53269.0,STARLINK-4057,PAYLOAD,2023-10-27 11:25:54,15.08841044,0.0001315,53.217,103.7257,82.1146,277.9996,0.00010017,1.307e-05,0.0,0 STARLINK-4057,1 53269U 22086AD  23300.47632819  .00001307  00000-0  10017-3 0  9994,2 53269  53.2170 103.7257 0001315  82.1146 277.9996 15.08841044 70553,6917.877,95.437,540.652,538.832,0.0
53269.0,STARLINK-4057,PAYLOAD,2023-10-27 20:58:13,15.0883216,0.0001481,53.2171,101.9412,86.0389,274.0772,0.00039135,5.945e-05,0.0,0 STARLINK-4057,1 53269U 22086AD  23300.87376927  .00005945  00000-0  39135-3 0  9997,2 53269  53.2171 101.9412 0001481  86.0389 274.0772 15.08832160 70798,6917.904,95.438,540.794,538.745,0.0
53269.0,STARLINK-4057,PAYLOAD,2023-10-28 09:41:19,15.08835272,0.0001522,53.2158,99.5618,83.9923,276.1243,-2.681e-05,-7.15e-06,0.0,0 STARLINK-4057,1 53269U 22086AD  23301.40369262 -.00000715  00000-0 -26810-4 0  9990,2 53269  53.2158  99.5618 0001522  83.9923 276.1243 15.08835272 70691,6917.895,95.438,540.813,538.707,0.0
53269.0,STARLINK-4057,PAYLOAD,2023-10-28 14:27:28,15.08834444,0.0001365,53.2164,98.6713,83.3722,276.7426,-8.7097e-05,-1.674e-05,0.0,0 STARLINK-4057,1 53269U 22086AD  23301.60241305 -.00001674  00000-0 -87097-4 0  9998,2 53269  53.2164  98.6713 0001365  83.3722 276.7426 15.08834444 70903,6917.897,95.438,540.707,538.818,0.0
53269.0,STARLINK-4057,PAYLOAD,2023-10-28 17:38:14,15.08839298,0.0001295,53.2174,98.0767,87.1759,272.9381,1.8922e-05,1.3e-07,0.0,0 STARLINK-4057,1 53269U 22086AD  23301.73489330  .00000013  00000-0  18922-4 0  9999,2 53269  53.2174  98.0767 0001295  87.1759 272.9381 15.08839298 70923,6917.883,95.438,540.643,538.852,0.0
53269.0,STARLINK-4057,PAYLOAD,2023-10-29 03:10:33,15.08846069,0.0001325,53.2173,96.2924,87.6764,272.438,1.7708e-05,-6e-08,0.0,0 STARLINK-4057,1 53269U 22086AD  23302.13232825 -.00000006  00000-0  17708-4 0  9993,2 53269  53.2173  96.2924 0001325  87.6764 272.4380 15.08846069 70807,6917.862,95.437,540.643,538.81,0.0
53269.0,STARLINK-4057,PAYLOAD,2023-10-29 14:18:15,15.08846863,0.0001478,53.2174,94.2111,92.7482,267.3679,7.0058e-05,8.27e-06,0.0,0 STARLINK-4057,1 53269U 22086AD  23302.59600738  .00000827  00000-0  70058-4 0  9992,2 53269  53.2174  94.2111 0001478  92.7482 267.3679 15.08846863 71051,6917.859,95.437,540.747,538.702,0.0
53269.0,STARLINK-4057,PAYLOAD,2023-10-29 17:29:01,15.08847141,0.0001435,53.2166,93.6163,92.844,267.2716,0.0001017,1.331e-05,0.0,0 STARLINK-4057,1 53269U 22086AD  23302.72848553  .00001331  00000-0  10170-3 0  9995,2 53269  53.2166  93.6163 0001435  92.8440 267.2716 15.08847141 71073,6917.859,95.437,540.716,538.731,0.0
53269.0,STARLINK-4057,PAYLOAD,2023-10-30 09:22:53,15.08834778,0.0001246,53.217,90.6423,87.299,272.8145,8.3553e-05,1.042e-05,0.0,0 STARLINK-4057,1 53269U 22086AD  23303.39089325  .00001042  00000-0  83553-4 0  9998,2 53269  53.2170  90.6423 0001246  87.2990 272.8145 15.08834778 70992,6917.896,95.438,540.623,538.899,0.0
53269.0,STARLINK-4057,PAYLOAD,2023-10-31 13:59:49,15.08839326,0.00017,53.2175,85.2897,87.8489,272.2697,6.2025e-05,6.99e-06,0.0,0 STARLINK-4057,1 53269U 22086AD  23304.58321539  .00000699  00000-0  62025-4 0  9994,2 53269  53.2175  85.2897 0001700  87.8489 272.2697 15.08839326 71357,6917.882,95.438,540.923,538.571,0.0
53269.0,STARLINK-4057,PAYLOAD,2023-10-31 18:45:58,15.08845619,0.0001259,53.217,84.3986,82.4051,277.7084,0.00015457,2.173e-05,0.0,0 STARLINK-4057,1 53269U 22086AD  23304.78193192  .00002173  00000-0  15457-3 0  9993,2 53269  53.2170  84.3986 0001259  82.4051 277.7084 15.08845619 71202,6917.863,95.437,540.599,538.857,0.0
53269.0,STARLINK-4057,PAYLOAD,2023-11-01 09:04:27,15.08837365,0.0001494,53.2171,81.722,87.7646,272.3517,0.00014379,2.001e-05,0.0,0 STARLINK-4057,1 53269U 22086AD  23305.37809797  .00002001  00000-0  14379-3 0  9996,2 53269  53.2171  81.7220 0001494  87.7646 272.3517 15.08837365 71294,6917.888,95.438,540.787,538.72,0.0
